HAWK-7A                 
1 56191U 23054P   26068.68910991  .00007758  00000+0  30248-3 0  9997
2 56191  97.2827 318.5579 0004249  51.2619 308.8999 15.26207271161849
STARLINK-31386          
1 59298U 24056C   26068.48723892  .00000032  00000+0  10709-4 0  9990
2 59298  43.0015 231.8274 0001452 278.0938  81.9748 15.27572805111129
